{
    "CCSDS_OMM_VERS": "3.0",
    "COMMENT": "GENERATED VIA SPACE-TRACK.ORG API",
    "CREATION_DATE": "2025-05-22T17:14:14",
    "ORIGINATOR": "18 SPCS",
    "OBJECT_NAME": "COSMOS 2476 (GLONASS)",
    "OBJECT_ID": "2011-064A",
    "CENTER_NAME": "EARTH",
    "REF_FRAME": "TEME",
    "TIME_SYSTEM": "UTC",
    "MEAN_ELEMENT_THEORY": "SGP4",
    "EPOCH": "2025-05-22T07:36:39.140352",
    "MEAN_MOTION": "2.13101452",
    "ECCENTRICITY": "0.00233040",
    "INCLINATION": "65.0510",
    "RA_OF_ASC_NODE": "86.0895",
    "ARG_OF_PERICENTER": "241.0714",
    "MEAN_ANOMALY": "301.3526",
    "EPHEMERIS_TYPE": "0",
    "CLASSIFICATION_TYPE": "U",
    "NORAD_CAT_ID": "37867",
    "ELEMENT_SET_NO": "999",
    "REV_AT_EPOCH": "10543",
    "BSTAR": "0.00000000000000",
    "MEAN_MOTION_DOT": "0.00000014",
    "MEAN_MOTION_DDOT": "0.0000000000000",
    "SEMIMAJOR_AXIS": "25508.068",
    "PERIOD": "675.734",
    "APOAPSIS": "19189.377",
    "PERIAPSIS": "19070.489",
    "OBJECT_TYPE": "PAYLOAD",
    "RCS_SIZE": "LARGE",
    "COUNTRY_CODE": "CIS",
    "LAUNCH_DATE": "2011-11-04",
    "SITE": "TTMTR",
    "DECAY_DATE": null,
    "FILE": "4736220",
    "GP_ID": "288141303",
    "TLE_LINE0": "0 COSMOS 2476 (GLONASS)",
    "TLE_LINE1": "1 37867U 11064A   25142.31711968  .00000014  00000-0  00000-0 0  9998",
    "TLE_LINE2": "2 37867  65.0510  86.0895 0023304 241.0714 301.3526  2.13101452105439"
}